1 43552U 98067PA  19045.92040192 +.00010482 +00000-0 +13981-3 0  9995
2 43552 051.6385 244.7038 0006238 045.9560 314.1946 15.58707472033690
1 43552U 98067PA  19046.81797958  .00009961  00000-0  13310-3 0  9999
2 43552  51.6382 240.1984 0006266  48.9651 311.1882 15.58725812 33832
1 43552U 98067PA  19047.77965801 +.00008822 +00000-0 +11856-3 0  9997
2 43552 051.6381 235.3713 0006283 052.3081 307.8481 15.58744435033987
1 43552U 98067PA  19048.86954618 +.00008689 +00000-0 +11679-3 0  9996
2 43552 051.6378 229.8998 0006295 055.8818 304.2771 15.58765532034159
1 43552U 98067PA  19049.51065032  .00010078  00000-0  13432-3 0  9996
2 43552  51.6379 226.6812 0006309  57.9372 302.2232 15.58779643 34253
1 43552U 98067PA  19049.89531079 +.00009762 +00000-0 +13029-3 0  9996
2 43552 051.6379 224.7502 0006334 059.1517 301.0098 15.58785795034310
1 43552U 98067PA  19050.72873390  .00010525  00000-0  13985-3 0  9995
2 43552  51.6380 220.5660 0006336  61.9295 298.2337 15.58803756 34442
1 43552U 98067PA  19051.88268831 +.00010887 +00000-0 +14430-3 0  9998
2 43552 051.6384 214.7725 0006355 065.3288 294.8366 15.58829193034621
1 43552U 98067PA  19051.88268831  .00010887  00000-0  14430-3 0  9998
2 43552  51.6384 214.7725 0006355  65.3288 294.8366 15.58829193 34621
1 43552U 98067PA  19052.84430326 +.00014423 +00000-0 +18880-3 0  9998
2 43552 051.6386 209.9445 0006343 068.5558 291.6111 15.58852803034773
1 43552U 98067PA  19053.48537172  .00012465  00000-0  16400-3 0  9996
2 43552  51.6387 206.7260 0006353  70.6592 289.5087 15.58866775 34879
1 43552U 98067PA  19053.87000970 +.00011347 +00000-0 +14985-3 0  9994
2 43552 051.6388 204.7949 0006353 071.8431 288.3253 15.58875217034937
1 43552U 98067PA  19054.76748998  .00009877  00000-0  13121-3 0  9998
2 43552  51.6389 200.2891 0006373  74.5561 285.6135 15.58894052 35074
1 43552U 98067PA  19054.83159530 +.00010050 +00000-0 +13338-3 0  9999
2 43552 051.6389 199.9672 0006372 074.6962 285.4734 15.58895677035088
1 43552U 98067PA  19055.66496010 +.00009759 +00000-0 +12964-3 0  9996
2 43552 051.6388 195.7831 0006370 077.2989 282.8715 15.58911692035215
1 43552U 98067PA  19056.24190005  .00009022  00000-0  12030-3 0  9993
2 43552  51.6386 192.8864 0006376  79.1308 281.0402 15.58921869 35300
1 43552U 98067PA  19057.52397488  .00011501  00000-0  15137-3 0  9995
2 43552  51.6386 186.4490 0006371  83.2641 276.9076 15.58949421 35501
1 43552U 98067PA  19057.58807829 +.00009340 +00000-0 +12419-3 0  9994
2 43552 051.6386 186.1272 0006372 083.4558 276.7160 15.58947069035515
1 43552U 98067PA  19058.54962169  .00010060  00000-0  13317-3 0  9999
2 43552  51.6386 181.2988 0006387  86.4619 273.7104 15.58964779 35660
1 43552U 98067PA  19059.57525379 +.00014185 +00000-0 +18483-3 0  9992
2 43552 051.6386 176.1489 0006378 089.6539 270.5185 15.58992020035827
1 43552U 98067PA  19060.53676576  .00016547  00000-0  21423-3 0  9998
2 43552  51.6387 171.3204 0006351  92.3286 267.8434 15.59021656 35972
1 43552U 98067PA  19060.66496583 +.00017473 +00000-0 +22578-3 0  9991
2 43552 051.6388 170.6767 0006341 092.6190 267.5528 15.59026777035997
1 43552U 98067PA  19061.56235689 +.00015545 +00000-0 +20143-3 0  9993
2 43552 051.6391 166.1702 0006343 095.7651 264.4065 15.59053898036131
1 43552U 98067PA  19061.75465285  .00014994  00000-0  19449-3 0  9995
2 43552  51.6391 165.2045 0006329  96.1816 263.9898 15.59059691 36161
1 43552U 98067PA  19062.71612288 +.00011498 +00000-0 +15058-3 0  9997
2 43552 051.6393 160.3761 0006320 099.2163 260.9545 15.59083967036310
1 43552U 98067PA  19063.48528899  .00010023  00000-0  13204-3 0  9990
2 43552  51.6395 156.5134 0006314 101.6102 258.5599 15.59100434 36431
1 43552U 98067PA  19063.54938579 +.00010320 +00000-0 +13574-3 0  9997
2 43552 051.6395 156.1915 0006314 101.8094 258.3607 15.59102101036448
1 43552U 98067PA  19064.44673412 +.00011342 +00000-0 +14840-3 0  9991
2 43552 051.6395 151.6848 0006312 104.6450 255.5243 15.59124298036589
1 43552U 98067PA  19065.21588043  .00009980  00000-0  13130-3 0  9998
2 43552  51.6395 147.8219 0006303 107.0593 253.1091 15.59140627 36706
1 43552U 98067PA  19065.60045073 +.00010117 +00000-0 +13297-3 0  9990
2 43552 051.6394 145.8902 0006304 108.4097 251.7582 15.59148756036763
1 43552U 98067PA  19066.43367991  .00009573  00000-0  12610-3 0  9990
2 43552  51.6393 141.7051 0006304 111.3873 248.7793 15.59164621 36890
1 43552U 98067PA  19067.45917925  .00012347  00000-0  16056-3 0  9992
2 43552  51.6390 136.5541 0006290 114.8718 245.2929 15.59189972 37051
1 43552U 98067PA  19067.58736586 +.00010901 +00000-0 +14254-3 0  9990
2 43552 051.6390 135.9103 0006269 115.0652 245.0992 15.59190984037079
1 43552U 98067PA  19068.54875597  .00008894  00000-0  11743-3 0  9991
2 43552  51.6388 131.0811 0006245 118.3009 241.8614 15.59210170 37227
1 43552U 98067PA  19068.61284838 +.00008754 +00000-0 +11568-3 0  9991
2 43552 051.6387 130.7591 0006236 118.4430 241.7191 15.59211187037235
1 43552U 98067PA  19069.57422768  .00009609  00000-0  12625-3 0  9998
2 43552  51.6388 125.9298 0006208 121.4367 238.7234 15.59229552 37383
1 43552U 98067PA  19070.53559565 +.00009227 +00000-0 +12141-3 0  9991
2 43552 051.6386 121.1004 0006204 124.6622 235.4956 15.59246744037533
1 43552U 98067PA  19071.49695259  .00008440  00000-0  11155-3 0  9998
2 43552  51.6387 116.2708 0006185 128.0430 232.1122 15.59263665 37689
1 43552U 98067PA  19072.52238693  .00010795  00000-0  14071-3 0  9994
2 43552  51.6390 111.1193 0006170 131.4958 228.6565 15.59286964 37848
1 43552U 98067PA  19073.48371844 +.00009801 +00000-0 +12827-3 0  9999
2 43552 051.6389 106.2897 0006166 134.7952 225.3543 15.59305896037999
1 43552U 98067PA  19074.44503529  .00012745  00000-0  16464-3 0  9995
2 43552  51.6391 101.4602 0006126 138.1661 221.9801 15.59332694 38147
1 43552U 98067PA  19075.27816542 +.00011004 +00000-0 +14297-3 0  9998
2 43552 051.6391 097.2744 0006135 141.0731 219.0704 15.59350557038279
1 43552U 98067PA  19076.11128373  .00013109  00000-0  16889-3 0  9997
2 43552  51.6389  93.0886 0006127 143.9294 216.2113 15.59374448 38406
1 43552U 98067PA  19076.30353957 +.00017580 +00000-0 +22409-3 0  9998
2 43552 051.6390 092.1226 0006123 144.5291 215.6110 15.59385353038436
1 43552U 98067PA  19077.20072343  .00013465  00000-0  17306-3 0  9993
2 43552  51.6388  87.6144 0006088 147.5872 212.5496 15.59410775 38574
1 43552U 98067PA  19077.45705842 +.00013819 +00000-0 +17737-3 0  9998
2 43552 051.6388 086.3262 0006083 148.5018 211.6340 15.59419928038611
1 43552U 98067PA  19078.03380851 +.00012673 +00000-0 +16312-3 0  9997
2 43552 051.6387 083.4280 0006086 150.5169 209.6168 15.59435400038709
1 43552U 98067PA  19079.44362150  .00013069  00000-0  16780-3 0  9994
2 43552  51.6387  76.3430 0006065 155.6565 204.4715 15.59469175 38921
1 43552U 98067PA  19080.40484140  .00009640  00000-0  12543-3 0  9999
2 43552  51.6387  71.5120 0006046 159.2693 200.8546 15.59486451 39070
1 43552U 98067PA  19081.23788841 +.00010064 +00000-0 +13056-3 0  9998
2 43552 051.6391 067.3255 0006036 162.2378 197.8827 15.59504686039203
1 43552U 98067PA  19081.94276645  .00011225  00000-0  14477-3 0  9998
2 43552  51.6392  63.7832 0006014 164.7058 195.4118 15.59521955 39310
1 43552U 98067PA  19082.19908367 +.00010105 +00000-0 +13096-3 0  9991
2 43552 051.6393 062.4951 0006012 165.5979 194.5186 15.59527022039358
1 43552U 98067PA  19083.16026582  .00009758  00000-0  12659-3 0  9995
2 43552  51.6397  57.6646 0006013 169.3810 190.7311 15.59547897 39503
1 43552U 98067PA  19083.35250075 +.00010195 +00000-0 +13194-3 0  9994
2 43552 051.6399 056.6985 0005999 170.1371 189.9741 15.59552444039538
1 43552U 98067PA  19084.37774573  .00010509  00000-0  13570-3 0  9998
2 43552  51.6400  51.5462 0005994 174.0664 186.0401 15.59574008 39696
1 43552U 98067PA  19085.33889943 +.00012910 +00000-0 +16504-3 0  9991
2 43552 051.6401 046.7157 0006001 177.7288 182.3733 15.59597625039840
1 43552U 98067PA  19086.17188920  .00011767  00000-0  15092-3 0  9991
2 43552  51.6402  42.5291 0005984 180.8200 179.2784 15.59613909 39971
1 43552U 98067PA  19086.30004026 +.00011877 +00000-0 +15226-3 0  9991
2 43552 051.6401 041.8850 0005987 181.3489 178.7489 15.59617359039992
1 43552U 98067PA  19087.13301788 +.00013314 +00000-0 +16974-3 0  9997
2 43552 051.6402 037.6983 0005956 184.3854 175.7088 15.59638059040127
1 43552U 98067PA  19088.09413100  .00014261  00000-0  18116-3 0  9997
2 43552  51.6402  32.8673 0005961 188.0924 171.9973 15.59664242 40275
1 43552U 98067PA  19088.22227816 +.00013334 +00000-0 +16980-3 0  9996
2 43552 051.6402 032.2232 0005946 188.5614 171.5278 15.59666767040294
1 43552U 98067PA  19088.99115651  .00012217  00000-0  15603-3 0  9993
2 43552  51.6403  28.3581 0005946 191.3164 168.7696 15.59684846 40414
1 43552U 98067PA  19089.88816977 +.00011315 +00000-0 +14489-3 0  9990
2 43552 051.6403 023.8492 0005918 194.7719 165.3102 15.59705137040554
1 43552U 98067PA  19090.01631367  .00011099  00000-0  14223-3 0  9990
2 43552  51.6404  23.2050 0005920 195.1730 164.9086 15.59707678 40570
1 43552U 98067PA  19090.78517089 +.00012796 +00000-0 +16285-3 0  9993
2 43552 051.6405 019.3400 0005941 197.9249 162.1535 15.59727907040693
1 43552U 98067PA  19091.16959648  .00011180  00000-0  14308-3 0  9997
2 43552  51.6406  17.4077 0005931 199.6438 160.4328 15.59734733 40754
1 43552U 98067PA  19091.93844087 +.00013109 +00000-0 +16650-3 0  9997
2 43552 051.6407 013.5427 0005938 202.5425 157.5308 15.59754879040879
1 43552U 98067PA  19092.77134486 +.00011388 +00000-0 +14540-3 0  9998
2 43552 051.6408 009.3556 0005927 205.7250 154.3449 15.59773447041004
1 43552U 98067PA  19093.15575801  .00010650  00000-0  13635-3 0  9996
2 43552  51.6408   7.4232 0005934 207.2144 152.8539 15.59782759 41066
1 43552U 98067PA  19093.92457686 +.00012942 +00000-0 +16415-3 0  9996
2 43552 051.6409 003.5582 0005918 210.4056 149.6594 15.59805922041188
1 43552U 98067PA  19094.11677987  .00013206  00000-0  16732-3 0  9992
2 43552  51.6408   2.5920 0005912 211.2425 148.8217 15.59811462 41218
